IRIDIUM 64 [+]          
1 25287U 98021C   17021.29384391  .00000156  00000-0  48803-4 0  9993
2 25287  86.3969 285.3508 0002017  79.3292 280.8131 14.34225459983945
IRIDIUM 65 [+]          
1 25288U 98021D   17021.30017338  .00000162  00000-0  50711-4 0  9998
2 25288  86.3967 285.2542 0002193  85.8810 274.2636 14.34218148983960
IRIDIUM 66 [+]          
1 25289U 98021E   17021.25870887  .00000010  00000-0 -36130-5 0  9992
2 25289  86.3966 285.1761 0002106  85.8281  27.7074 14.34218391983954
IRIDIUM 67 [+]          
1 25290U 98021F   17021.24308641  .00000163  00000-0  51117-4 0  9996
2 25290  86.3967 285.3169 0002046  84.9023 275.2406 14.34217993983965
IRIDIUM 68 [+]          
1 25291U 98021G   17021.24943183  .00000161  00000-0  50533-4 0  9992
2 25291  86.3969 285.4302 0002066  83.5884 276.5547 14.34217684983934
IRIDIUM 69 [-]          
1 25319U 98026A   17021.35421392  .00000105  00000-0  27625-4 0  9997
2 25319  86.4013 307.4925 0003708  63.4536 296.7042 14.38646977981923
IRIDIUM 71 [-]          
1 25320U 98026B   17021.38667075  .00000110  00000-0  29068-4 0  9991
2 25320  86.3994 303.4390 0004116  96.9009 263.2658 14.39057873982356
IRIDIUM 70 [+]          
1 25342U 98032A   17021.37086080  .00000157  00000-0  49081-4 0  9990
2 25342  86.3974 285.6145 0002124  87.8416  48.0488 14.34219475978050
IRIDIUM 72 [+]          
1 25343U 98032B   17021.33187364  .00000169  00000-0  53456-4 0  9998
2 25343  86.3967 285.2519 0002081  85.8406 274.3028 14.34218003978053
IRIDIUM 73 [-]          
1 25344U 98032C   17021.26029402  .00000119  00000-0  25921-4 0  9990
2 25344  86.4422 265.0140 0002024 106.9055 253.2371 14.49004537986270
IRIDIUM 74 [S]          
1 25345U 98032D   17021.31718405  .00000188  00000-0  50840-4 0  9999
2 25345  86.4483 285.6401 0007478 142.6623 354.6905 14.42441963981569
IRIDIUM 75 [+]          
1 25346U 98032E   17021.36465175  .00000009  00000-0 -39104-5 0  9992
2 25346  86.3971 285.4855 0002095  84.9993  51.4991 14.34217380978625
IRIDIUM 3 [+]           
1 25431U 98048A   17021.41923661  .00000172  00000-0  54267-4 0  9995
2 25431  86.3984 317.0676 0002248  87.2469  51.4007 14.34215169964571
IRIDIUM 76 [+]          
1 25432U 98048B   17021.43691376  .00000174  00000-0  54992-4 0  9990
2 25432  86.3981 316.8191 0002055  88.6026  43.0809 14.34215375964563
IRIDIUM 82 [+]          
1 25467U 98051A   17021.31092452  .00000121  00000-0  36142-4 0  9998
2 25467  86.3944  83.5763 0002362  88.8626 271.2840 14.34219650965563
IRIDIUM 81 [+]          
1 25468U 98051B   17021.30456145  .00000192  00000-0  61405-4 0  9999
2 25468  86.3954  83.2034 0002044  95.4532 264.6897 14.34225189961782
IRIDIUM 80 [+]          
1 25469U 98051C   17021.59735983  .00000128  00000-0  38713-4 0  9996
2 25469  86.3958  83.3619 0002036  94.8663  73.9705 14.34227777961825
IRIDIUM 77 [+]          
1 25471U 98051E   17021.30037861  .00000127  00000-0  38272-4 0  9997
2 25471  86.3949  83.0676 0002228  98.4068 305.5838 14.34221582966981
IRIDIUM 2 [-]           
1 25527U 98066A   17021.35346787  .00001399  00000-0  70738-4 0  9995
2 25527  85.5325 118.9095 0007037 269.3136  90.7297 15.16101882995629
IRIDIUM 86 [+]          
1 25528U 98066B   17021.52951632 -.00000040  00000-0 -21383-4 0  9992
2 25528  86.3928  51.1226 0002257  91.7067 268.4387 14.34218104958348
IRIDIUM 84 [+]          
1 25530U 98066D   17021.49147075 -.00000018  00000-0 -13582-4 0  9996
2 25530  86.3930  51.3011 0002060  90.4149 269.7283 14.34218121955971
IRIDIUM 83 [+]          
1 25531U 98066E   17021.52317953 -.00000031  00000-0 -18047-4 0  9991
2 25531  86.3933  51.4071 0002050  88.7220 271.4211 14.34218531953335
IRIDIUM 20 [+]          
1 25577U 98074A   17021.44313372  .00000176  00000-0  55841-4 0  9993
2 25577  86.3980 316.7396 0002164  84.7662 275.3780 14.34215383947403
IRIDIUM 11 [+]          
1 25578U 98074B   17021.41294766  .00000018  00000-0 -74808-6 0  9998
2 25578  86.3979 316.9553 0002263  82.0643  56.9052 14.34215809956362
IRIDIUM 14 [+]          
1 25777U 99032A   17021.21771921  .00000155  00000-0  48291-4 0  9991
2 25777  86.3971 285.3795 0002173  87.3759 272.7686 14.34217564933612
IRIDIUM 21 [+]          
1 25778U 99032B   17021.32553842  .00000166  00000-0  52116-4 0  9997
2 25778  86.3969 285.3553 0001910  85.9716 274.1698 14.34218472927067
IRIDIUM 91 [+]          
1 27372U 02005A   17021.52203203  .00000027  00000-0  25579-5 0  9998
2 27372  86.3369 348.8913 0002540  90.4007   4.6908 14.34213865790601
IRIDIUM 90 [S]          
1 27373U 02005B   17021.45341168 -.00000001  00000-0 -64345-5 0  9992
2 27373  86.4443  51.4152 0002196  92.8977 267.2475 14.42948314790190
IRIDIUM 94 [+]          
1 27374U 02005C   17021.35743981  .00000175  00000-0  55451-4 0  9998
2 27374  86.3983 317.1047 0002149 105.6058   8.7178 14.34215109794906
IRIDIUM 95 [+]          
1 27375U 02005D   17021.47189894  .00000108  00000-0  31349-4 0  9995
2 27375  86.3744 348.8562 0002147  90.2238 269.9203 14.34214848789882
IRIDIUM 96 [+]          
1 27376U 02005E   17021.44990551 -.00000081  00000-0 -35876-4 0  9994
2 27376  86.3975  20.5061 0000828 101.6327 258.4961 14.34214870795085
IRIDIUM 97 [+]          
1 27450U 02031A   17021.48797796  .00000029  00000-0  31481-5 0  9995
2 27450  86.3949  20.2194 0002127  84.0975 276.0463 14.34214088769209
IRIDIUM 98 [+]          
1 27451U 02031B   17021.57243692  .00000130  00000-0  39420-4 0  9990
2 27451  86.3950  83.5274 0002132  93.7404  45.0210 14.34221640770289
